STARLINK-37595          
1 69847U 26154AE  26193.16668980 -.01574324  79922-3 -23085-2 0  9997
2 69847  53.1579 307.9919 0000765  74.3093  25.2957 16.04507027  2181
CHUANG XIN 26 (CX-26)   
1 69972U 26158A   26192.48090097 -.00000088  00000+0  30360-4 0  9994
2 69972  49.9853 296.0945 0004896 288.4346  71.6034 14.25145244   171
CZ-10B DEB              
1 69973U 26158B   26193.18246542  .00000091  00000+0  10655-3 0  9998
2 69973  49.9848 293.1365 0005689 301.2600  58.7756 14.24885520   273
CZ-10B R/B              
1 69974U 26158C   26191.83284742  .00000207  00000+0  64180-4 0  9995
2 69974  49.9651 298.6353 0197627 184.6042 175.3074 14.64294088    85
